ORBCOMM FM103           
1 40091U 14040F   25082.94361517  .00002984  00000+0  68018-3 0  9994
2 40091  47.0049  60.3243 0002641 264.3793  95.6791 14.57959086551669
ORBCOMM FM114           
1 41179U 15081A   25082.96797104  .00002720  00000+0  62252-3 0  9997
2 41179  47.0033 329.3111 0002438 313.8587  46.2097 14.58019368492034
ORBCOMM FM119           
1 41180U 15081B   25082.74615917  .00003120  00000+0  70980-3 0  9998
2 41180  46.9988 239.6383 0000750 343.6760  16.4101 14.57937199493256
ORBCOMM FM105           
1 41181U 15081C   25082.63149096  .00001433  00000+0  45063-3 0  9996
2 41181  47.0012 236.8399 0002101 284.5021  75.5626 14.45110700488371
ORBCOMM FM110           
1 41182U 15081D   25082.94368851  .00003627  00000+0  81745-3 0  9997
2 41182  47.0025 328.7934 0001640 114.5822 245.5235 14.58036285491907
ORBCOMM FM118           
1 41183U 15081E   25082.86020683  .00003727  00000+0  84025-3 0  9992
2 41183  47.0049 329.6442 0002041 106.1691 253.9419 14.57963289492073
ORBCOMM FM112           
1 41184U 15081F   25082.85934453  .00003363  00000+0  76158-3 0  9995
2 41184  46.9971 238.2640 0001026 304.7023  55.3766 14.57970535493216
ORBCOMM FM113           
1 41185U 15081G   25082.83649512  .00003604  00000+0  81416-3 0  9994
2 41185  46.9988 238.6873 0001003 316.2056  43.8749 14.57929655493193
